[{"OBJECT_NAME":"SHIJIAN-6 03B (SJ-6 03B)","OBJECT_ID":"2008-053B","EPOCH":"2026-03-09T23:28:00.216192","MEAN_MOTION":15.03879314,"ECCENTRICITY":0.00200774,"INCLINATION":97.8673,"RA_OF_ASC_NODE":87.2117,"ARG_OF_PERICENTER":21.0315,"MEAN_ANOMALY":339.1731,"EPHEMERIS_TYPE":0,"CLASSIFICATION_TYPE":"U","NORAD_CAT_ID":33409,"ELEMENT_SET_NO":999,"REV_AT_EPOCH":94783,"BSTAR":0.00032650966,"MEAN_MOTION_DOT":4.452e-5,"MEAN_MOTION_DDOT":0},{"OBJECT_NAME":"STARLINK-5777","OBJECT_ID":"2023-042AT","EPOCH":"2026-03-09T22:00:01.999584","MEAN_MOTION":15.07357417,"ECCENTRICITY":0.00018334,"INCLINATION":43.0013,"RA_OF_ASC_NODE":41.8727,"ARG_OF_PERICENTER":270.7151,"MEAN_ANOMALY":116.0838,"EPHEMERIS_TYPE":0,"CLASSIFICATION_TYPE":"U","NORAD_CAT_ID":56027,"ELEMENT_SET_NO":999,"REV_AT_EPOCH":572,"BSTAR":0.004007937,"MEAN_MOTION_DOT":0.00061955,"MEAN_MOTION_DDOT":0}]
